{
  "type": "FeatureCollection",
  "name": "building_footprints_scaffold",
  "features": [
    {
      "type": "Feature",
      "id": "BLDG-001",
      "properties": {
        "id": "BLDG-001",
        "layer": "BUILDING_FOOTPRINT",
        "source_type": "agent_generated_design",
        "confidence": "medium",
        "geometry_role": "design_proposal",
        "building_type": "ai_r_and_d",
        "name_zh": "AI研发示范建筑基底",
        "area_sqm_declared": 310807.184,
        "last_modified_by": "yanjiaxing1994",
        "design_iteration": 1
      },
      "geometry": {
        "type": "Polygon",
        "coordinates": [
          [
            [
              116.341572,
              39.95475
            ],
            [
              116.341572,
              39.97225
            ],
            [
              116.34344399999999,
              39.97225
            ],
            [
              116.34344399999999,
              39.95475
            ],
            [
              116.341572,
              39.95475
            ]
          ]
        ]
      }
    },
    {
      "type": "Feature",
      "id": "BLDG-002",
      "properties": {
        "id": "BLDG-002",
        "layer": "BUILDING_FOOTPRINT",
        "source_type": "agent_generated_design",
        "confidence": "medium",
        "geometry_role": "design_proposal",
        "building_type": "incubator",
        "name_zh": "AI创新孵化中心",
        "name_en": "AI Innovation Incubator",
        "stories": 8,
        "retain_status": "new",
        "design_iteration": 1,
        "last_modified_by": "yanjiaxing1994"
      },
      "geometry": {
        "type": "Polygon",
        "coordinates": [
          [
            [
              116.3473,
              39.98292
            ],
            [
              116.35029999999999,
              39.98292
            ],
            [
              116.35029999999999,
              39.98592
            ],
            [
              116.3473,
              39.98592
            ],
            [
              116.3473,
              39.98292
            ]
          ]
        ]
      }
    }
  ]
}