{
  "type": "FeatureCollection",
  "name": "green_space_smart_green_corridor",
  "features": [
    {
      "type": "Feature",
      "id": "GREEN-001",
      "properties": {
        "id": "GREEN-001",
        "layer": "GREEN_SPACE",
        "source_type": "agent_generated_design",
        "confidence": "medium",
        "geometry_role": "design_proposal",
        "land_use_code": "1401",
        "name_zh": "京张铁路遗址公园绿廊（9公里）",
        "name_en": "Jing-Zhang Railway Heritage Park Green Corridor (9km)",
        "green_functions": [
          "continuous_park_corridor",
          "cycling_path",
          "running_path",
          "pedestrian_walkway",
          "pet_friendly_zones",
          "rain_garden"
        ],
        "design_iteration": 1,
        "last_modified_by": "yanjiaxing1994"
      },
      "geometry": {
        "type": "Polygon",
        "coordinates": [
          [
            [
              116.343,
              40.005
            ],
            [
              116.343,
              39.96
            ],
            [
              116.34011666666666,
              39.96
            ],
            [
              116.34,
              39.96419999999969
            ],
            [
              116.34,
              39.979650000000134
            ],
            [
              116.34163548387097,
              40.005
            ],
            [
              116.343,
              40.005
            ]
          ]
        ]
      }
    },
    {
      "type": "Feature",
      "id": "GREEN-ZZY-01",
      "properties": {
        "id": "GREEN-ZZY-01",
        "layer": "GREEN_SPACE",
        "key_area": "zhongzhiyuan_ai_acceleration_area",
        "source_type": "agent_generated_design",
        "confidence": "medium",
        "geometry_role": "design_proposal",
        "land_use_code": "1401",
        "name_zh": "清河滨水绿带",
        "name_en": "Qinghe Riverside Green Belt",
        "green_functions": [
          "riverside_walkway",
          "cycling_path",
          "pet_friendly_lawn",
          "ecological_buffer"
        ],
        "design_iteration": 1,
        "last_modified_by": "yanjiaxing1994"
      },
      "geometry": {
        "type": "Polygon",
        "coordinates": [
          [
            [
              116.345,
              40.012
            ],
            [
              116.352,
              40.012
            ],
            [
              116.352,
              40.014
            ],
            [
              116.345,
              40.014
            ],
            [
              116.345,
              40.012
            ]
          ]
        ]
      }
    },
    {
      "type": "Feature",
      "id": "GREEN-ZZY-02",
      "properties": {
        "id": "GREEN-ZZY-02",
        "layer": "GREEN_SPACE",
        "key_area": "zhongzhiyuan_ai_acceleration_area",
        "source_type": "agent_inferred_from_public_data",
        "confidence": "high",
        "geometry_role": "design_proposal",
        "land_use_code": "1401",
        "name_zh": "下沉式生态广场",
        "name_en": "Sunken Ecological Plaza",
        "green_functions": [
          "sunken_garden",
          "social_plaza",
          "rain_garden",
          "outdoor_cinema"
        ],
        "design_iteration": 1,
        "last_modified_by": "yanjiaxing1994"
      },
      "geometry": {
        "type": "Polygon",
        "coordinates": [
          [
            [
              116.3483,
              40.0095
            ],
            [
              116.3492,
              40.0095
            ],
            [
              116.3492,
              40.0102
            ],
            [
              116.3483,
              40.0102
            ],
            [
              116.3483,
              40.0095
            ]
          ]
        ]
      }
    },
    {
      "type": "Feature",
      "id": "GREEN-ZZY-03",
      "properties": {
        "id": "GREEN-ZZY-03",
        "layer": "GREEN_SPACE",
        "key_area": "zhongzhiyuan_ai_acceleration_area",
        "source_type": "agent_inferred_from_public_data",
        "confidence": "high",
        "geometry_role": "design_proposal",
        "land_use_code": "1401",
        "name_zh": "空中花园（裙房屋顶）",
        "name_en": "Sky Garden (Podium Rooftop)",
        "green_functions": [
          "rooftop_sports",
          "basketball_half_court",
          "badminton_court",
          "sky_garden"
        ],
        "design_iteration": 1,
        "last_modified_by": "yanjiaxing1994"
      },
      "geometry": {
        "type": "Polygon",
        "coordinates": [
          [
            [
              116.3475,
              40.008
            ],
            [
              116.3495,
              40.008
            ],
            [
              116.3495,
              40.0083
            ],
            [
              116.3475,
              40.0083
            ],
            [
              116.3475,
              40.008
            ]
          ]
        ]
      }
    },
    {
      "type": "Feature",
      "id": "GREEN-WDK-01",
      "properties": {
        "id": "GREEN-WDK-01",
        "layer": "GREEN_SPACE",
        "key_area": "beijing_ai_origin_community",
        "source_type": "agent_generated_design",
        "confidence": "medium",
        "geometry_role": "design_proposal",
        "land_use_code": "1401",
        "name_zh": "新增1.3公顷青年活动草坪",
        "name_en": "New 1.3ha Youth Activity Lawn",
        "green_functions": [
          "multi_function_lawn",
          "camping_area",
          "outdoor_yoga",
          "market_space",
          "pet_activity_zone"
        ],
        "design_iteration": 1,
        "last_modified_by": "yanjiaxing1994"
      },
      "geometry": {
        "type": "Polygon",
        "coordinates": [
          [
            [
              116.342,
              39.996
            ],
            [
              116.342,
              39.994
            ],
            [
              116.34092580645161,
              39.994
            ],
            [
              116.34105483870968,
              39.996
            ],
            [
              116.342,
              39.996
            ]
          ]
        ]
      }
    },
    {
      "type": "Feature",
      "id": "GREEN-WDK-02",
      "properties": {
        "id": "GREEN-WDK-02",
        "layer": "GREEN_SPACE",
        "key_area": "beijing_ai_origin_community",
        "source_type": "agent_inferred_from_public_data",
        "confidence": "high",
        "geometry_role": "existing_condition",
        "land_use_code": "1401",
        "name_zh": "荷清园（保留）",
        "name_en": "Heqing Garden (Retained)",
        "green_functions": [
          "running_track",
          "cycling_path",
          "basketball_court",
          "public_park"
        ],
        "design_iteration": 1,
        "last_modified_by": "yanjiaxing1994"
      },
      "geometry": {
        "type": "Polygon",
        "coordinates": [
          [
            [
              116.34750915575873,
              39.98066972782049
            ],
            [
              116.34790915575874,
              39.98066972782049
            ],
            [
              116.34790915575874,
              39.98106972782049
            ],
            [
              116.34750915575873,
              39.98106972782049
            ],
            [
              116.34750915575873,
              39.98066972782049
            ]
          ]
        ]
      }
    },
    {
      "type": "Feature",
      "id": "GREEN-WDK-03",
      "properties": {
        "id": "GREEN-WDK-03",
        "layer": "GREEN_SPACE",
        "key_area": "beijing_ai_origin_community",
        "source_type": "agent_inferred_from_public_data",
        "confidence": "high",
        "geometry_role": "existing_condition",
        "land_use_code": "1401",
        "name_zh": "京张绿廊五道口段（1.3公里）",
        "name_en": "Jing-Zhang Green Corridor Wudaokou Section (1.3km)",
        "green_functions": [
          "three_paths_one_green",
          "running_path",
          "cycling_path",
          "walking_path",
          "railway_heritage_display"
        ],
        "design_iteration": 1,
        "last_modified_by": "yanjiaxing1994"
      },
      "geometry": {
        "type": "Polygon",
        "coordinates": [
          [
            [
              116.343,
              40.002
            ],
            [
              116.343,
              39.988
            ],
            [
              116.34053870967742,
              39.988
            ],
            [
              116.34144193548387,
              40.002
            ],
            [
              116.343,
              40.002
            ]
          ]
        ]
      }
    },
    {
      "type": "Feature",
      "id": "GREEN-DZS-01",
      "properties": {
        "id": "GREEN-DZS-01",
        "layer": "GREEN_SPACE",
        "key_area": "dazhongsi_ai_industry_cluster",
        "source_type": "agent_inferred_from_public_data",
        "confidence": "high",
        "geometry_role": "existing_condition",
        "land_use_code": "1401",
        "name_zh": "大钟寺体育公园（保留）",
        "name_en": "Dazhongsi Sports Park (Retained)",
        "green_functions": [
          "500m_running_track",
          "basketball_court_576sqm",
          "5v5_football_field_1536sqm",
          "table_tennis_x4",
          "badminton_court_oct2026"
        ],
        "design_iteration": 1,
        "last_modified_by": "yanjiaxing1994"
      },
      "geometry": {
        "type": "Polygon",
        "coordinates": [
          [
            [
              116.3465,
              39.9645
            ],
            [
              116.348,
              39.9645
            ],
            [
              116.348,
              39.966
            ],
            [
              116.3465,
              39.966
            ],
            [
              116.3465,
              39.9645
            ]
          ]
        ]
      }
    },
    {
      "type": "Feature",
      "id": "GREEN-DZS-02",
      "properties": {
        "id": "GREEN-DZS-02",
        "layer": "GREEN_SPACE",
        "key_area": "dazhongsi_ai_industry_cluster",
        "source_type": "agent_inferred_from_public_data",
        "confidence": "high",
        "geometry_role": "existing_condition",
        "land_use_code": "1401",
        "name_zh": "大钟寺·顺馨园（保留原生乔木及古钟）",
        "name_en": "Dazhongsi Shunxin Garden (Retained Native Trees & Ancient Bell)",
        "green_functions": [
          "native_tree_preservation",
          "cultural_bell_display",
          "linear_park_300m",
          "shaded_walkway"
        ],
        "design_iteration": 1,
        "last_modified_by": "yanjiaxing1994"
      },
      "geometry": {
        "type": "Polygon",
        "coordinates": [
          [
            [
              116.346,
              39.962
            ],
            [
              116.3485,
              39.962
            ],
            [
              116.3485,
              39.963
            ],
            [
              116.346,
              39.963
            ],
            [
              116.346,
              39.962
            ]
          ]
        ]
      }
    },
    {
      "type": "Feature",
      "id": "GREEN-DZS-03",
      "properties": {
        "id": "GREEN-DZS-03",
        "layer": "GREEN_SPACE",
        "key_area": "dazhongsi_ai_industry_cluster",
        "source_type": "agent_inferred_from_public_data",
        "confidence": "medium",
        "geometry_role": "design_proposal",
        "land_use_code": "1401",
        "name_zh": "京张遗址公园二期大钟寺段",
        "name_en": "Jing-Zhang Heritage Park Phase II Dazhongsi Section",
        "green_functions": [
          "children_climbing_area",
          "skate_park",
          "cycling_path",
          "pet_friendly_lawn",
          "railway_bridge_heritage"
        ],
        "design_iteration": 1,
        "last_modified_by": "yanjiaxing1994"
      },
      "geometry": {
        "type": "Polygon",
        "coordinates": [
          [
            [
              116.345,
              39.961
            ],
            [
              116.348,
              39.961
            ],
            [
              116.348,
              39.963
            ],
            [
              116.345,
              39.963
            ],
            [
              116.345,
              39.961
            ]
          ]
        ]
      }
    }
  ]
}