{
  "type": "FeatureCollection",
  "name": "phasing_smart_green_corridor",
  "features": [
    {
      "type": "Feature",
      "id": "PHASE-1",
      "properties": {
        "id": "PHASE-1",
        "layer": "PHASE",
        "source_type": "agent_generated_design",
        "confidence": "medium",
        "geometry_role": "design_proposal",
        "phase": "phase_1_near_term_0_2_years",
        "name_zh": "近期启动（0-2年）：慢行贯通+口袋设施+运营激活",
        "name_en": "Near-term (0-2yr): Trail Continuity + Pop-up Facilities + Activation",
        "actions_zh": [
          "京张绿廊三片区慢行贯通",
          "三处滑板场轻量建设",
          "三处宠物友好区设置",
          "大钟寺碗池滑板场",
          "五道口青年草坪开放",
          "下沉广场青年中心建设"
        ],
        "design_iteration": 1,
        "last_modified_by": "yanjiaxing1994"
      },
      "geometry": {
        "type": "Polygon",
        "coordinates": [
          [
            [
              116.352,
              40.01
            ],
            [
              116.35,
              39.99
            ],
            [
              116.34066774193548,
              39.99
            ],
            [
              116.3417,
              40.006
            ],
            [
              116.34189512195123,
              40.01
            ],
            [
              116.352,
              40.01
            ]
          ]
        ]
      }
    },
    {
      "type": "Feature",
      "id": "PHASE-2",
      "properties": {
        "id": "PHASE-2",
        "layer": "PHASE",
        "source_type": "agent_generated_design",
        "confidence": "medium",
        "geometry_role": "design_proposal",
        "phase": "phase_2_mid_term_2_5_years",
        "name_zh": "中期推进（2-5年）：建筑首层优化+永久设施+文化节点",
        "name_en": "Mid-term (2-5yr): Ground Floor Optimization + Permanent Facilities + Cultural Nodes",
        "actions_zh": [
          "众智园5栋办公楼首层灰空间优化",
          "清华科技园首层开放界面改造",
          "铁路记忆科创互动馆",
          "古钟文化驿站",
          "开源社区发布厅",
          "清河滨水步道全线贯通"
        ],
        "design_iteration": 1,
        "last_modified_by": "yanjiaxing1994"
      },
      "geometry": {
        "type": "Polygon",
        "coordinates": [
          [
            [
              116.34043947368421,
              39.98646184210528
            ],
            [
              116.3417,
              40.006
            ],
            [
              116.3417975609756,
              40.008
            ],
            [
              116.345,
              40.008
            ],
            [
              116.345,
              39.97050000000001
            ],
            [
              116.34043947368421,
              39.98646184210528
            ]
          ]
        ]
      }
    },
    {
      "type": "Feature",
      "id": "PHASE-3",
      "properties": {
        "id": "PHASE-3",
        "layer": "PHASE",
        "source_type": "agent_generated_design",
        "confidence": "medium",
        "geometry_role": "design_proposal",
        "phase": "phase_3_long_term_5_years_plus",
        "name_zh": "远期完善（5年+）：跨片区系统整合+国际运营体系",
        "name_en": "Long-term (5yr+): Cross-District System Integration + International Operation",
        "actions_zh": [
          "青年极限运动网络品牌化运营",
          "全球AI活动周公共路线固化",
          "京张绿廊宠物友好体系全线贯通",
          "三片区骑行道互联互通评级",
          "铁路工业遗存全线文化解说系统"
        ],
        "design_iteration": 1,
        "last_modified_by": "yanjiaxing1994"
      },
      "geometry": {
        "type": "Polygon",
        "coordinates": [
          [
            [
              116.3546698630137,
              40.015
            ],
            [
              116.3533,
              39.99
            ],
            [
              116.355,
              39.96874999999996
            ],
            [
              116.355,
              39.958
            ],
            [
              116.34017222222222,
              39.958
            ],
            [
              116.3397,
              39.975
            ],
            [
              116.3417,
              40.006
            ],
            [
              116.34213902439025,
              40.015
            ],
            [
              116.3546698630137,
              40.015
            ]
          ]
        ]
      }
    }
  ]
}