{
  "type": "FeatureCollection",
  "name": "public_space_smart_green_corridor",
  "features": [
    {
      "type": "Feature",
      "id": "PUBLIC-ZZY-01",
      "properties": {
        "id": "PUBLIC-ZZY-01",
        "layer": "PUBLIC_SPACE",
        "key_area": "zhongzhiyuan_ai_acceleration_area",
        "source_type": "agent_generated_design",
        "confidence": "medium",
        "geometry_role": "design_proposal",
        "name_zh": "初级泵道滑板练习区",
        "name_en": "Beginner Pump Track Skate Zone",
        "public_space_type": "skate_park_beginner_pump_track",
        "design_iteration": 1,
        "last_modified_by": "yanjiaxing1994"
      },
      "geometry": {
        "type": "Polygon",
        "coordinates": [
          [
            [
              116.3495,
              40.0095
            ],
            [
              116.35,
              40.0095
            ],
            [
              116.35,
              40.01
            ],
            [
              116.3495,
              40.01
            ],
            [
              116.3495,
              40.0095
            ]
          ]
        ]
      }
    },
    {
      "type": "Feature",
      "id": "PUBLIC-ZZY-02",
      "properties": {
        "id": "PUBLIC-ZZY-02",
        "layer": "PUBLIC_SPACE",
        "key_area": "zhongzhiyuan_ai_acceleration_area",
        "source_type": "agent_generated_design",
        "confidence": "medium",
        "geometry_role": "design_proposal",
        "name_zh": "宠物友好草坪区",
        "name_en": "Pet-Friendly Lawn Zone",
        "public_space_type": "pet_activity_zone",
        "amenities": [
          "pet_drinking_fountain",
          "waste_bag_station",
          "fenced_play_area"
        ],
        "design_iteration": 1,
        "last_modified_by": "yanjiaxing1994"
      },
      "geometry": {
        "type": "Polygon",
        "coordinates": [
          [
            [
              116.35,
              40.01
            ],
            [
              116.3508,
              40.01
            ],
            [
              116.3508,
              40.0108
            ],
            [
              116.35,
              40.0108
            ],
            [
              116.35,
              40.01
            ]
          ]
        ]
      }
    },
    {
      "type": "Feature",
      "id": "PUBLIC-ZZY-03",
      "properties": {
        "id": "PUBLIC-ZZY-03",
        "layer": "PUBLIC_SPACE",
        "key_area": "zhongzhiyuan_ai_acceleration_area",
        "source_type": "agent_generated_design",
        "confidence": "medium",
        "geometry_role": "design_proposal",
        "name_zh": "清河滨水漫步道与骑行道",
        "name_en": "Qinghe Riverside Walk & Cycle Path",
        "public_space_type": "riverside_trail",
        "design_iteration": 1,
        "last_modified_by": "yanjiaxing1994"
      },
      "geometry": {
        "type": "Polygon",
        "coordinates": [
          [
            [
              116.345,
              40.013
            ],
            [
              116.352,
              40.013
            ],
            [
              116.352,
              40.0135
            ],
            [
              116.345,
              40.0135
            ],
            [
              116.345,
              40.013
            ]
          ]
        ]
      }
    },
    {
      "type": "Feature",
      "id": "PUBLIC-WDK-01",
      "properties": {
        "id": "PUBLIC-WDK-01",
        "layer": "PUBLIC_SPACE",
        "key_area": "beijing_ai_origin_community",
        "source_type": "agent_generated_design",
        "confidence": "medium",
        "geometry_role": "design_proposal",
        "name_zh": "街头滑板场",
        "name_en": "Street Skate Plaza",
        "public_space_type": "skate_park_street_plaza",
        "design_iteration": 1,
        "last_modified_by": "yanjiaxing1994"
      },
      "geometry": {
        "type": "Polygon",
        "coordinates": [
          [
            [
              116.34740915575874,
              39.98056972782049
            ],
            [
              116.34800915575873,
              39.98056972782049
            ],
            [
              116.34800915575873,
              39.98116972782049
            ],
            [
              116.34740915575874,
              39.98116972782049
            ],
            [
              116.34740915575874,
              39.98056972782049
            ]
          ]
        ]
      }
    },
    {
      "type": "Feature",
      "id": "PUBLIC-WDK-02",
      "properties": {
        "id": "PUBLIC-WDK-02",
        "layer": "PUBLIC_SPACE",
        "key_area": "beijing_ai_origin_community",
        "source_type": "agent_generated_design",
        "confidence": "medium",
        "geometry_role": "design_proposal",
        "name_zh": "五道口宠物友好空间",
        "name_en": "Wudaokou Pet-Friendly Space",
        "public_space_type": "pet_activity_zone",
        "amenities": [
          "pet_drinking_fountain_x2",
          "waste_bag_station_x2",
          "small_dog_run"
        ],
        "design_iteration": 1,
        "last_modified_by": "yanjiaxing1994"
      },
      "geometry": {
        "type": "Polygon",
        "coordinates": [
          [
            [
              116.3415,
              39.9965
            ],
            [
              116.3415,
              39.996
            ],
            [
              116.34105483870968,
              39.996
            ],
            [
              116.34108709677419,
              39.9965
            ],
            [
              116.3415,
              39.9965
            ]
          ]
        ]
      }
    },
    {
      "type": "Feature",
      "id": "PUBLIC-WDK-03",
      "properties": {
        "id": "PUBLIC-WDK-03",
        "layer": "PUBLIC_SPACE",
        "key_area": "beijing_ai_origin_community",
        "source_type": "agent_generated_design",
        "confidence": "medium",
        "geometry_role": "design_proposal",
        "name_zh": "青年露营与市集草坪",
        "name_en": "Youth Camping & Market Lawn",
        "public_space_type": "multi_function_lawn",
        "design_iteration": 1,
        "last_modified_by": "yanjiaxing1994"
      },
      "geometry": {
        "type": "Polygon",
        "coordinates": [
          [
            [
              116.3418,
              39.9955
            ],
            [
              116.3418,
              39.9945
            ],
            [
              116.341,
              39.9945
            ],
            [
              116.341,
              39.99514999999991
            ],
            [
              116.34102258064516,
              39.9955
            ],
            [
              116.3418,
              39.9955
            ]
          ]
        ]
      }
    },
    {
      "type": "Feature",
      "id": "PUBLIC-DZS-01",
      "properties": {
        "id": "PUBLIC-DZS-01",
        "layer": "PUBLIC_SPACE",
        "key_area": "dazhongsi_ai_industry_cluster",
        "source_type": "agent_generated_design",
        "confidence": "medium",
        "geometry_role": "design_proposal",
        "name_zh": "碗池滑板场",
        "name_en": "Bowl Skate Park",
        "public_space_type": "skate_park_bowl",
        "design_iteration": 1,
        "last_modified_by": "yanjiaxing1994"
      },
      "geometry": {
        "type": "Polygon",
        "coordinates": [
          [
            [
              116.3455,
              39.9625
            ],
            [
              116.3465,
              39.9625
            ],
            [
              116.3465,
              39.9635
            ],
            [
              116.3455,
              39.9635
            ],
            [
              116.3455,
              39.9625
            ]
          ]
        ]
      }
    },
    {
      "type": "Feature",
      "id": "PUBLIC-DZS-02",
      "properties": {
        "id": "PUBLIC-DZS-02",
        "layer": "PUBLIC_SPACE",
        "key_area": "dazhongsi_ai_industry_cluster",
        "source_type": "agent_generated_design",
        "confidence": "medium",
        "geometry_role": "design_proposal",
        "name_zh": "大钟寺宠物阳光草坪",
        "name_en": "Dazhongsi Pet Sun Lawn",
        "public_space_type": "pet_activity_zone",
        "amenities": [
          "pet_drinking_fountain",
          "waste_bag_station",
          "shaded_seating"
        ],
        "design_iteration": 1,
        "last_modified_by": "yanjiaxing1994"
      },
      "geometry": {
        "type": "Polygon",
        "coordinates": [
          [
            [
              116.347,
              39.9635
            ],
            [
              116.3475,
              39.9635
            ],
            [
              116.3475,
              39.964
            ],
            [
              116.347,
              39.964
            ],
            [
              116.347,
              39.9635
            ]
          ]
        ]
      }
    }
  ]
}