{
  "type": "FeatureCollection",
  "name": "roads_smart_green_corridor",
  "features": [
    {
      "type": "Feature",
      "id": "ROAD-CYCLE-01",
      "properties": {
        "id": "ROAD-CYCLE-01",
        "layer": "ROAD_CENTERLINE",
        "source_type": "agent_generated_design",
        "confidence": "medium",
        "geometry_role": "design_proposal",
        "road_class": "cycleway",
        "name_zh": "京张绿廊连续骑行道（9公里）",
        "name_en": "Jing-Zhang Green Corridor Continuous Cycling Path (9km)",
        "length_m_declared": 9000,
        "design_iteration": 1,
        "last_modified_by": "yanjiaxing1994"
      },
      "geometry": {
        "type": "LineString",
        "coordinates": [
          [
            116.34137594936709,
            40.00097721518982
          ],
          [
            116.3415,
            39.998
          ],
          [
            116.342,
            39.99
          ],
          [
            116.347,
            39.965
          ]
        ]
      }
    },
    {
      "type": "Feature",
      "id": "ROAD-RUN-01",
      "properties": {
        "id": "ROAD-RUN-01",
        "layer": "ROAD_CENTERLINE",
        "source_type": "agent_generated_design",
        "confidence": "medium",
        "geometry_role": "design_proposal",
        "road_class": "greenway",
        "name_zh": "京张绿廊连续跑步道（9公里）",
        "name_en": "Jing-Zhang Green Corridor Continuous Running Path (9km)",
        "length_m_declared": 9000,
        "design_iteration": 1,
        "last_modified_by": "yanjiaxing1994"
      },
      "geometry": {
        "type": "LineString",
        "coordinates": [
          [
            116.34109047619047,
            39.99655238095234
          ],
          [
            116.3415,
            39.99
          ],
          [
            116.3465,
            39.965
          ]
        ]
      }
    },
    {
      "type": "Feature",
      "id": "ROAD-WALK-01",
      "properties": {
        "id": "ROAD-WALK-01",
        "layer": "ROAD_CENTERLINE",
        "source_type": "agent_generated_design",
        "confidence": "medium",
        "geometry_role": "design_proposal",
        "road_class": "pedestrian",
        "name_zh": "京张绿廊漫步道（9公里）",
        "name_en": "Jing-Zhang Green Corridor Walking Path (9km)",
        "length_m_declared": 9000,
        "design_iteration": 1,
        "last_modified_by": "yanjiaxing1994"
      },
      "geometry": {
        "type": "LineString",
        "coordinates": [
          [
            116.34167974683544,
            40.00568607594931
          ],
          [
            116.342,
            39.998
          ],
          [
            116.3425,
            39.99
          ],
          [
            116.3475,
            39.965
          ]
        ]
      }
    },
    {
      "type": "Feature",
      "id": "ROAD-ZZY-QINGHE",
      "properties": {
        "id": "ROAD-ZZY-QINGHE",
        "layer": "ROAD_CENTERLINE",
        "key_area": "zhongzhiyuan_ai_acceleration_area",
        "source_type": "agent_generated_design",
        "confidence": "medium",
        "geometry_role": "design_proposal",
        "road_class": "greenway",
        "name_zh": "清河滨水漫步骑行道",
        "name_en": "Qinghe Riverside Walk & Cycle Path",
        "length_m_declared": 800,
        "design_iteration": 1,
        "last_modified_by": "yanjiaxing1994"
      },
      "geometry": {
        "type": "LineString",
        "coordinates": [
          [
            116.345,
            40.0132
          ],
          [
            116.35,
            40.0132
          ],
          [
            116.352,
            40.0132
          ]
        ]
      }
    },
    {
      "type": "Feature",
      "id": "ROAD-WDK-HEQING",
      "properties": {
        "id": "ROAD-WDK-HEQING",
        "layer": "ROAD_CENTERLINE",
        "key_area": "beijing_ai_origin_community",
        "source_type": "agent_generated_design",
        "confidence": "medium",
        "geometry_role": "design_proposal",
        "road_class": "cycleway",
        "name_zh": "荷清园连接骑行道",
        "name_en": "Heqing Garden Connector Cycling Path",
        "length_m_declared": 600,
        "design_iteration": 1,
        "last_modified_by": "yanjiaxing1994"
      },
      "geometry": {
        "type": "LineString",
        "coordinates": [
          [
            116.3410212121212,
            39.99547878787879
          ],
          [
            116.3415,
            39.995
          ]
        ]
      }
    },
    {
      "type": "Feature",
      "id": "ROAD-DZS-CONNECT",
      "properties": {
        "id": "ROAD-DZS-CONNECT",
        "layer": "ROAD_CENTERLINE",
        "key_area": "dazhongsi_ai_industry_cluster",
        "source_type": "agent_generated_design",
        "confidence": "medium",
        "geometry_role": "design_proposal",
        "road_class": "cycleway",
        "name_zh": "大钟寺体育公园-顺馨园-京张绿廊串联骑行道",
        "name_en": "Dazhongsi Park-Shunxin Garden-Green Corridor Cycling Loop",
        "length_m_declared": 1200,
        "design_iteration": 1,
        "last_modified_by": "yanjiaxing1994"
      },
      "geometry": {
        "type": "LineString",
        "coordinates": [
          [
            116.347,
            39.9655
          ],
          [
            116.347,
            39.964
          ],
          [
            116.347,
            39.9625
          ],
          [
            116.347,
            39.9615
          ]
        ]
      }
    },
    {
      "type": "Feature",
      "id": "ROAD-DZS-TRACK",
      "properties": {
        "id": "ROAD-DZS-TRACK",
        "layer": "ROAD_CENTERLINE",
        "key_area": "dazhongsi_ai_industry_cluster",
        "source_type": "agent_inferred_from_public_data",
        "confidence": "high",
        "geometry_role": "existing_condition",
        "road_class": "pedestrian",
        "name_zh": "大钟寺体育公园500米环形跑道（保留）",
        "name_en": "Dazhongsi Sports Park 500m Loop Track (Retained)",
        "length_m_declared": 500,
        "design_iteration": 1,
        "last_modified_by": "yanjiaxing1994"
      },
      "geometry": {
        "type": "LineString",
        "coordinates": [
          [
            116.3465,
            39.965
          ],
          [
            116.348,
            39.965
          ],
          [
            116.348,
            39.9658
          ],
          [
            116.3465,
            39.9658
          ],
          [
            116.3465,
            39.965
          ]
        ]
      }
    }
  ]
}